[{"OBJECT_NAME":"GENMAT-1","OBJECT_ID":"2023-174W","EPOCH":"2026-03-09T18:03:23.351040","MEAN_MOTION":15.32594666,"ECCENTRICITY":0.00074416,"INCLINATION":97.3728,"RA_OF_ASC_NODE":146.8236,"ARG_OF_PERICENTER":169.2515,"MEAN_ANOMALY":190.8888,"EPHEMERIS_TYPE":0,"CLASSIFICATION_TYPE":"U","NORAD_CAT_ID":58276,"ELEMENT_SET_NO":999,"REV_AT_EPOCH":12973,"BSTAR":0.00042157222,"MEAN_MOTION_DOT":0.0001321,"MEAN_MOTION_DDOT":0},{"OBJECT_NAME":"STARLINK-32855","OBJECT_ID":"2025-018H","EPOCH":"2026-03-09T21:26:08.431296","MEAN_MOTION":15.30217575,"ECCENTRICITY":0.00012194,"INCLINATION":53.157,"RA_OF_ASC_NODE":308.3608,"ARG_OF_PERICENTER":121.6526,"MEAN_ANOMALY":238.4594,"EPHEMERIS_TYPE":0,"CLASSIFICATION_TYPE":"U","NORAD_CAT_ID":62813,"ELEMENT_SET_NO":999,"REV_AT_EPOCH":6320,"BSTAR":0.001039073,"MEAN_MOTION_DOT":0.00030559,"MEAN_MOTION_DDOT":0}]
